[{"OBJECT_NAME":"GAOFEN-5 01","OBJECT_ID":"2018-043A","EPOCH":"2026-03-09T22:22:27.309792","MEAN_MOTION":14.60523795,"ECCENTRICITY":0.00026321,"INCLINATION":98.4468,"RA_OF_ASC_NODE":38.4968,"ARG_OF_PERICENTER":51.5893,"MEAN_ANOMALY":308.5542,"EPHEMERIS_TYPE":0,"CLASSIFICATION_TYPE":"U","NORAD_CAT_ID":43461,"ELEMENT_SET_NO":999,"REV_AT_EPOCH":41720,"BSTAR":0.00013017918,"MEAN_MOTION_DOT":5.83e-6,"MEAN_MOTION_DDOT":0},{"OBJECT_NAME":"CZ-2C R\/B","OBJECT_ID":"2011-039B","EPOCH":"2026-03-09T16:15:10.143936","MEAN_MOTION":14.70242252,"ECCENTRICITY":0.00414153,"INCLINATION":98.1155,"RA_OF_ASC_NODE":326.9178,"ARG_OF_PERICENTER":267.1611,"MEAN_ANOMALY":92.4855,"EPHEMERIS_TYPE":0,"CLASSIFICATION_TYPE":"U","NORAD_CAT_ID":37766,"ELEMENT_SET_NO":999,"REV_AT_EPOCH":78217,"BSTAR":0.00016206499,"MEAN_MOTION_DOT":9.37e-6,"MEAN_MOTION_DDOT":0}]
